start=new Date('2023-04-17T00:00:00.000Z').valueOf();
sats=[{"APOAPSIS":"540.872","SITE":"AFETR","MEAN_MOTION":"15.08822813","CLASSIFICATION_TYPE":"U","LAUNCH_DATE":"2022-08-10","MEAN_MOTION_DOT":"-0.00002385","MEAN_ELEMENT_THEORY":"SGP4","REV_AT_EPOCH":"3887","NORAD_CAT_ID":"53420","REF_FRAME":"TEME","RA_OF_ASC_NODE":"184.5748","DECAY_DATE":null,"COUNTRY_CODE":"US","OBJECT_NAME":"STARLINK-4552","PERIAPSIS":"538.724","OBJECT_TYPE":"PAYLOAD","FILE":"3888626","CENTER_NAME":"EARTH","ELEMENT_SET_NO":"999","RCS_SIZE":"LARGE","MEAN_MOTION_DDOT":"0.0000000000000","INCLINATION":"53.2141","EPHEMERIS_TYPE":"0","ARG_OF_PERICENTER":"71.2550","TIME_SYSTEM":"UTC","OBJECT_ID":"2022-097AJ","PERIOD":"95.439","MEAN_ANOMALY":"288.8611","ECCENTRICITY":"0.00015520","EPOCH":"2023-04-16T11:42:16.703712","SEMIMAJOR_AXIS":"6917.933","BSTAR":"-0.00013189000000","GP_ID":"230169301","TLE_LINE2":"2 53420  53.2141 184.5748 0001552  71.2550 288.8611 15.08822813 38870","TLE_LINE1":"1 53420U 22097AJ  23106.48769333 -.00002385  00000-0 -13189-3 0  9994"},{"GP_ID":"230199060","BSTAR":"0.00022598000000","SEMIMAJOR_AXIS":"6917.854","TLE_LINE1":"1 53421U 22097AK  23106.62751270  .00003311  00000-0  22598-3 0  9994","TLE_LINE2":"2 53421  53.2138 183.9410 0001715 128.7543 231.3603 15.08848522 38898","INCLINATION":"53.2138","MEAN_MOTION_DDOT":"0.0000000000000","RCS_SIZE":"LARGE","ELEMENT_SET_NO":"999","FILE":"3888799","CENTER_NAME":"EARTH","OBJECT_TYPE":"PAYLOAD","PERIAPSIS":"538.533","EPOCH":"2023-04-16T15:03:37.097280","PERIOD":"95.437","MEAN_ANOMALY":"231.3603","ECCENTRICITY":"0.00017150","OBJECT_ID":"2022-097AK","ARG_OF_PERICENTER":"128.7543","TIME_SYSTEM":"UTC","EPHEMERIS_TYPE":"0","RA_OF_ASC_NODE":"183.9410","REF_FRAME":"TEME","NORAD_CAT_ID":"53421","REV_AT_EPOCH":"3889","MEAN_ELEMENT_THEORY":"SGP4","OBJECT_NAME":"STARLINK-4545","COUNTRY_CODE":"US","DECAY_DATE":null,"MEAN_MOTION":"15.08848522","SITE":"AFETR","APOAPSIS":"540.906","MEAN_MOTION_DOT":"0.00003311","LAUNCH_DATE":"2022-08-10","CLASSIFICATION_TYPE":"U"},{"TLE_LINE1":"1 53422U 22097AL  23106.61279274  .00002341  00000-0  16511-3 0  9993","TLE_LINE2":"2 53422  53.2152 184.0114 0001270  71.6957 288.4173 15.08849006 38915","BSTAR":"0.00016511000000","SEMIMAJOR_AXIS":"6917.853","GP_ID":"230199813","TIME_SYSTEM":"UTC","ARG_OF_PERICENTER":"71.6957","EPHEMERIS_TYPE":"0","PERIOD":"95.437","MEAN_ANOMALY":"288.4173","ECCENTRICITY":"0.00012700","EPOCH":"2023-04-16T14:42:25.292736","OBJECT_ID":"2022-097AL","CENTER_NAME":"EARTH","FILE":"3888799","RCS_SIZE":"LARGE","ELEMENT_SET_NO":"999","PERIAPSIS":"538.839","OBJECT_TYPE":"PAYLOAD","MEAN_MOTION_DDOT":"0.0000000000000","INCLINATION":"53.2152","DECAY_DATE":null,"COUNTRY_CODE":"US","OBJECT_NAME":"STARLINK-4546","REV_AT_EPOCH":"3891","NORAD_CAT_ID":"53422","MEAN_ELEMENT_THEORY":"SGP4","RA_OF_ASC_NODE":"184.0114","REF_FRAME":"TEME","LAUNCH_DATE":"2022-08-10","CLASSIFICATION_TYPE":"U","MEAN_MOTION_DOT":"0.00002341","SITE":"AFETR","APOAPSIS":"540.596","MEAN_MOTION":"15.08849006"},{"TLE_LINE1":"1 53423U 22097AM  23106.62471811  .00022857  00000-0  14530-2 0  9998","TLE_LINE2":"2 53423  53.2162 183.9660 0001813  94.4501 265.6698 15.08753152 38894","BSTAR":"0.00145300000000","SEMIMAJOR_AXIS":"6918.146","GP_ID":"230199525","TIME_SYSTEM":"UTC","ARG_OF_PERICENTER":"94.4501","EPHEMERIS_TYPE":"0","MEAN_ANOMALY":"265.6698","PERIOD":"95.443","EPOCH":"2023-04-16T14:59:35.644704","ECCENTRICITY":"0.00018130","OBJECT_ID":"2022-097AM","FILE":"3888799","CENTER_NAME":"EARTH","RCS_SIZE":"LARGE","ELEMENT_SET_NO":"999","OBJECT_TYPE":"PAYLOAD","PERIAPSIS":"538.757","MEAN_MOTION_DDOT":"0.0000000000000","INCLINATION":"53.2162","DECAY_DATE":null,"OBJECT_NAME":"STARLINK-4539","COUNTRY_CODE":"US","NORAD_CAT_ID":"53423","REV_AT_EPOCH":"3889","MEAN_ELEMENT_THEORY":"SGP4","RA_OF_ASC_NODE":"183.9660","REF_FRAME":"TEME","LAUNCH_DATE":"2022-08-10","CLASSIFICATION_TYPE":"U","MEAN_MOTION_DOT":"0.00022857","SITE":"AFETR","APOAPSIS":"541.265","MEAN_MOTION":"15.08753152"},{"APOAPSIS":"540.365","SITE":"AFETR","MEAN_MOTION":"15.08874102","CLASSIFICATION_TYPE":"U","LAUNCH_DATE":"2022-08-10","MEAN_MOTION_DOT":"0.00035454","MEAN_ELEMENT_THEORY":"SGP4","NORAD_CAT_ID":"53424","REV_AT_EPOCH":"3893","REF_FRAME":"TEME","RA_OF_ASC_NODE":"183.4502","DECAY_DATE":null,"COUNTRY_CODE":"US","OBJECT_NAME":"STARLINK-4532","PERIAPSIS":"538.917","OBJECT_TYPE":"PAYLOAD","RCS_SIZE":"LARGE","ELEMENT_SET_NO":"999","FILE":"3888799","CENTER_NAME":"EARTH","MEAN_MOTION_DDOT":"0.0000000000000","INCLINATION":"53.2151","EPHEMERIS_TYPE":"0","TIME_SYSTEM":"UTC","ARG_OF_PERICENTER":"72.6726","OBJECT_ID":"2022-097AN","ECCENTRICITY":"0.00010470","PERIOD":"95.435","MEAN_ANOMALY":"287.4380","EPOCH":"2023-04-16T17:42:35.812800","SEMIMAJOR_AXIS":"6917.776","BSTAR":"0.00223250000000","GP_ID":"230198813","TLE_LINE2":"2 53424  53.2151 183.4502 0001047  72.6726 287.4380 15.08874102 38933","TLE_LINE1":"1 53424U 22097AN  23106.73791450  .00035454  00000-0  22325-2 0  9993"},{"MEAN_MOTION_DOT":"0.00000908","LAUNCH_DATE":"2022-08-10","CLASSIFICATION_TYPE":"U","MEAN_MOTION":"15.08844688","SITE":"AFETR","APOAPSIS":"540.496","COUNTRY_CODE":"US","OBJECT_NAME":"STARLINK-4531","DECAY_DATE":null,"RA_OF_ASC_NODE":"183.9936","REF_FRAME":"TEME","REV_AT_EPOCH":"3888","NORAD_CAT_ID":"53425","MEAN_ELEMENT_THEORY":"SGP4","MEAN_ANOMALY":"270.8780","PERIOD":"95.437","ECCENTRICITY":"0.00011060","EPOCH":"2023-04-16T14:47:43.578240","OBJECT_ID":"2022-097AP","TIME_SYSTEM":"UTC","ARG_OF_PERICENTER":"89.2338","EPHEMERIS_TYPE":"0","MEAN_MOTION_DDOT":"0.0000000000000","INCLINATION":"53.2149","ELEMENT_SET_NO":"999","RCS_SIZE":"LARGE","FILE":"3888799","CENTER_NAME":"EARTH","PERIAPSIS":"538.966","OBJECT_TYPE":"PAYLOAD","TLE_LINE1":"1 53425U 22097AP  23106.61647660  .00000908  00000-0  75124-4 0  9997","TLE_LINE2":"2 53425  53.2149 183.9936 0001106  89.2338 270.8780 15.08844688 38886","GP_ID":"230199561","BSTAR":"0.00007512400000","SEMIMAJOR_AXIS":"6917.866"},{"PERIOD":"95.437","MEAN_ANOMALY":"287.5895","ECCENTRICITY":"0.00010230","EPOCH":"2023-04-16T10:50:37.059648","OBJECT_ID":"2022-097AQ","ARG_OF_PERICENTER":"72.5209","TIME_SYSTEM":"UTC","EPHEMERIS_TYPE":"0","INCLINATION":"53.2164","MEAN_MOTION_DDOT":"0.0000000000000","RCS_SIZE":"LARGE","ELEMENT_SET_NO":"999","CENTER_NAME":"EARTH","FILE":"3888626","PERIAPSIS":"539.026","OBJECT_TYPE":"PAYLOAD","TLE_LINE1":"1 53426U 22097AQ  23106.45181782  .00001814  00000-0  13202-3 0  9993","TLE_LINE2":"2 53426  53.2164 174.8925 0001023  72.5209 287.5895 15.08843848 39027","GP_ID":"230168316","BSTAR":"0.00013202000000","SEMIMAJOR_AXIS":"6917.869","MEAN_MOTION_DOT":"0.00001814","LAUNCH_DATE":"2022-08-10","CLASSIFICATION_TYPE":"U","MEAN_MOTION":"15.08843848","SITE":"AFETR","APOAPSIS":"540.441","COUNTRY_CODE":"US","OBJECT_NAME":"STARLINK-4558","DECAY_DATE":null,"RA_OF_ASC_NODE":"174.8925","REF_FRAME":"TEME","REV_AT_EPOCH":"3902","NORAD_CAT_ID":"53426","MEAN_ELEMENT_THEORY":"SGP4"},{"CLASSIFICATION_TYPE":"U","LAUNCH_DATE":"2022-08-10","MEAN_MOTION_DOT":"-0.00000421","APOAPSIS":"540.643","SITE":"AFETR","MEAN_MOTION":"15.08833076","DECAY_DATE":null,"COUNTRY_CODE":"US","OBJECT_NAME":"STARLINK-4541","MEAN_ELEMENT_THEORY":"SGP4","NORAD_CAT_ID":"53427","REV_AT_EPOCH":"3889","REF_FRAME":"TEME","RA_OF_ASC_NODE":"184.6262","EPHEMERIS_TYPE":"0","TIME_SYSTEM":"UTC","ARG_OF_PERICENTER":"85.7305","OBJECT_ID":"2022-097AR","MEAN_ANOMALY":"274.3832","PERIOD":"95.438","ECCENTRICITY":"0.00012670","EPOCH":"2023-04-16T11:26:22.209216","PERIAPSIS":"538.890","OBJECT_TYPE":"PAYLOAD","FILE":"3888626","CENTER_NAME":"EARTH","ELEMENT_SET_NO":"999","RCS_SIZE":"LARGE","INCLINATION":"53.2159","MEAN_MOTION_DDOT":"0.0000000000000","TLE_LINE2":"2 53427  53.2159 184.6262 0001267  85.7305 274.3832 15.08833076 38899","TLE_LINE1":"1 53427U 22097AR  23106.47664594 -.00000421  00000-0 -83770-5 0  9997","SEMIMAJOR_AXIS":"6917.902","BSTAR":"-0.00000837700000","GP_ID":"230168560"},{"OBJECT_NAME":"STARLINK-4540","COUNTRY_CODE":"US","DECAY_DATE":null,"RA_OF_ASC_NODE":"174.5474","REF_FRAME":"TEME","NORAD_CAT_ID":"53428","REV_AT_EPOCH":"3903","MEAN_ELEMENT_THEORY":"SGP4","MEAN_MOTION_DOT":"0.00001910","LAUNCH_DATE":"2022-08-10","CLASSIFICATION_TYPE":"U","MEAN_MOTION":"15.08845493","SITE":"AFETR","APOAPSIS":"540.521","TLE_LINE1":"1 53428U 22097AS  23106.51068754  .00001910  00000-0  13803-3 0  9999","TLE_LINE2":"2 53428  53.2173 174.5474 0001146  96.3383 263.7739 15.08845493 39030","GP_ID":"230169302","BSTAR":"0.00013803000000","SEMIMAJOR_AXIS":"6917.864","EPOCH":"2023-04-16T12:15:23.403456","PERIOD":"95.437","MEAN_ANOMALY":"263.7739","ECCENTRICITY":"0.00011460","OBJECT_ID":"2022-097AS","ARG_OF_PERICENTER":"96.3383","TIME_SYSTEM":"UTC","EPHEMERIS_TYPE":"0","MEAN_MOTION_DDOT":"0.0000000000000","INCLINATION":"53.2173","RCS_SIZE":"LARGE","ELEMENT_SET_NO":"999","CENTER_NAME":"EARTH","FILE":"3888626","PERIAPSIS":"538.936","OBJECT_TYPE":"PAYLOAD"},{"NORAD_CAT_ID":"53429","REV_AT_EPOCH":"3903","MEAN_ELEMENT_THEORY":"SGP4","RA_OF_ASC_NODE":"174.5716","REF_FRAME":"TEME","DECAY_DATE":null,"OBJECT_NAME":"STARLINK-4543","COUNTRY_CODE":"US","SITE":"AFETR","APOAPSIS":"540.565","MEAN_MOTION":"15.08859323","LAUNCH_DATE":"2022-08-10","CLASSIFICATION_TYPE":"U","MEAN_MOTION_DOT":"0.00003214","BSTAR":"0.00021984000000","SEMIMAJOR_AXIS":"6917.821","GP_ID":"230167567","TLE_LINE1":"1 53429U 22097AT  23106.51436537  .00003214  00000-0  21984-3 0  9996","TLE_LINE2":"2 53429  53.2172 174.5716 0001270  82.4880 277.6256 15.08859323 39030","ELEMENT_SET_NO":"999","RCS_SIZE":"LARGE","FILE":"3888626","CENTER_NAME":"EARTH","OBJECT_TYPE":"PAYLOAD","PERIAPSIS":"538.808","MEAN_MOTION_DDOT":"0.0000000000000","INCLINATION":"53.2172","ARG_OF_PERICENTER":"82.4880","TIME_SYSTEM":"UTC","EPHEMERIS_TYPE":"0","PERIOD":"95.436","MEAN_ANOMALY":"277.6256","ECCENTRICITY":"0.00012700","EPOCH":"2023-04-16T12:20:41.167968","OBJECT_ID":"2022-097AT"}];
